{"type": "FeatureCollection", "features": [ {"type": "Feature", "properties": {"norad_id": 66536, "name": "STARLINK-35640", "group": "last-30-days", "lat": 15.824727881976019, "lon": -130.580362241073, "alt_km": 413.16263226619776, "timestamp": "2025-12-10T11:33:52.172035+00:00", "meta": {"OBJECT_NAME": "STARLINK-35640", "OBJECT_ID": "2025-265W", "EPOCH": "2025-12-10T04:00:01.998720", "MEAN_MOTION": 15.50594891, "ECCENTRICITY": 0.0001691, "INCLINATION": 42.9997, "RA_OF_ASC_NODE": 68.9718, "ARG_OF_PERICENTER": 272.441, "MEAN_ANOMALY": 282.5482, "EPHEMERIS_TYPE": 0, "CLASSIFICATION_TYPE": "U", "NORAD_CAT_ID": 66536, "ELEMENT_SET_NO": 999, "REV_AT_EPOCH": 456, "BSTAR": -0.0012288, "MEAN_MOTION_DOT": -0.00071816, "MEAN_MOTION_DDOT": 0}, "tle": {"line1": "1 66536U 25265W   25344.16668980 -.00071816  00000+0 -12288-2 0  9995", "line2": "2 66536  42.9997  68.9718 0001691 272.4410 282.5482 15.50594891  4567"}}, "geometry": {"type": "Point", "coordinates": [-130.580362241073, 15.824727881976019]}}, {"type": "Feature", "properties": {"norad_id": 66537, "name": "STARLINK-35582", "group": "last-30-days", "lat": 14.586238901358303, "lon": -129.09195495853618, "alt_km": 413.2064832494525, "timestamp": "2025-12-10T11:33:52.172045+00:00", "meta": {"OBJECT_NAME": "STARLINK-35582", "OBJECT_ID": "2025-265X", "EPOCH": "2025-12-10T04:00:01.998720", "MEAN_MOTION": 15.50548692, "ECCENTRICITY": 0.0001633, "INCLINATION": 43.0001, "RA_OF_ASC_NODE": 68.9676, "ARG_OF_PERICENTER": 266.5386, "MEAN_ANOMALY": 290.3783, "EPHEMERIS_TYPE": 0, "CLASSIFICATION_TYPE": "U", "NORAD_CAT_ID": 66537, "ELEMENT_SET_NO": 999, "REV_AT_EPOCH": 458, "BSTAR": -0.00010788, "MEAN_MOTION_DOT": -6.658e-05, "MEAN_MOTION_DDOT": 0}, "tle": {"line1": "1 66537U 25265X   25344.16668980 -.00006658  00000+0 -10788-3 0  9992", "line2": "2 66537  43.0001  68.9676 0001633 266.5386 290.3783 15.50548692  4582"}}, "geometry": {"type": "Point", "coordinates": [-129.09195495853618, 14.586238901358303]}}, {"type": "Feature", "properties": {"norad_id": 66538, "name": "STARLINK-35577", "group": "last-30-days", "lat": 13.32085403812544, "lon": -127.60085726696491, "alt_km": 413.41663337640057, "timestamp": "2025-12-10T11:33:52.172057+00:00", "meta": {"OBJECT_NAME": "STARLINK-35577", "OBJECT_ID": "2025-265Y", "EPOCH": "2025-12-10T04:00:01.998720", "MEAN_MOTION": 15.50535172, "ECCENTRICITY": 0.0001774, "INCLINATION": 43, "RA_OF_ASC_NODE": 68.9627, "ARG_OF_PERICENTER": 269.8675, "MEAN_ANOMALY": 288.975, "EPHEMERIS_TYPE": 0, "CLASSIFICATION_TYPE": "U", "NORAD_CAT_ID": 66538, "ELEMENT_SET_NO": 999, "REV_AT_EPOCH": 458, "BSTAR": 0.00064211, "MEAN_MOTION_DOT": 0.0003745, "MEAN_MOTION_DDOT": 0}, "tle": {"line1": "1 66538U 25265Y   25344.16668980  .00037450  00000+0  64211-3 0  9995", "line2": "2 66538  43.0000  68.9627 0001774 269.8675 288.9750 15.50535172  4587"}}, "geometry": {"type": "Point", "coordinates": [-127.60085726696491, 13.32085403812544]}}, {"type": "Feature", "properties": {"norad_id": 66539, "name": "STARLINK-35697", "group": "last-30-days", "lat": 12.055547151069009, "lon": -126.13554170869065, "alt_km": 413.6221383593138, "timestamp": "2025-12-10T11:33:52.172068+00:00", "meta": {"OBJECT_NAME": "STARLINK-35697", "OBJECT_ID": "2025-265Z", "EPOCH": "2025-12-10T04:00:01.998720", "MEAN_MOTION": 15.50535089, "ECCENTRICITY": 0.0001764, "INCLINATION": 42.9999, "RA_OF_ASC_NODE": 68.9577, "ARG_OF_PERICENTER": 272.156, "MEAN_ANOMALY": 288.5997, "EPHEMERIS_TYPE": 0, "CLASSIFICATION_TYPE": "U", "NORAD_CAT_ID": 66539, "ELEMENT_SET_NO": 999, "REV_AT_EPOCH": 458, "BSTAR": 0.00056305, "MEAN_MOTION_DOT": 0.00032777, "MEAN_MOTION_DDOT": 0}, "tle": {"line1": "1 66539U 25265Z   25344.16668980  .00032777  00000+0  56305-3 0  9998", "line2": "2 66539  42.9999  68.9577 0001764 272.1560 288.5997 15.50535089  4582"}}, "geometry": {"type": "Point", "coordinates": [-126.13554170869065, 12.055547151069009]}}, {"type": "Feature", "properties": {"norad_id": 66540, "name": "STARLINK-35818", "group": "last-30-days", "lat": 10.768253193212812, "lon": -124.66828399625696, "alt_km": 413.80698904577, "timestamp": "2025-12-10T11:33:52.172080+00:00", "meta": {"OBJECT_NAME": "STARLINK-35818", "OBJECT_ID": "2025-265AA", "EPOCH": "2025-12-10T04:00:01.998720", "MEAN_MOTION": 15.50596393, "ECCENTRICITY": 0.0001656, "INCLINATION": 42.9997, "RA_OF_ASC_NODE": 68.9523, "ARG_OF_PERICENTER": 273.7997, "MEAN_ANOMALY": 288.8566, "EPHEMERIS_TYPE": 0, "CLASSIFICATION_TYPE": "U", "NORAD_CAT_ID": 66540, "ELEMENT_SET_NO": 999, "REV_AT_EPOCH": 458, "BSTAR": -0.0012552, "MEAN_MOTION_DOT": -0.00073337, "MEAN_MOTION_DDOT": 0}, "tle": {"line1": "1 66540U 25265AA  25344.16668980 -.00073337  00000+0 -12552-2 0  9994", "line2": "2 66540  42.9997  68.9523 0001656 273.7997 288.8566 15.50596393  4584"}}, "geometry": {"type": "Point", "coordinates": [-124.66828399625696, 10.768253193212812]}}, {"type": "Feature", "properties": {"norad_id": 66541, "name": "STARLINK-35796", "group": "last-30-days", "lat": 9.48528708841875, "lon": -123.22565300447795, "alt_km": 413.92462611506744, "timestamp": "2025-12-10T11:33:52.172090+00:00", "meta": {"OBJECT_NAME": "STARLINK-35796", "OBJECT_ID": "2025-265AB", "EPOCH": "2025-12-10T04:00:01.998720", "MEAN_MOTION": 15.50595736, "ECCENTRICITY": 0.000168, "INCLINATION": 42.9998, "RA_OF_ASC_NODE": 68.9472, "ARG_OF_PERICENTER": 271.5496, "MEAN_ANOMALY": 293.0245, "EPHEMERIS_TYPE": 0, "CLASSIFICATION_TYPE": "U", "NORAD_CAT_ID": 66541, "ELEMENT_SET_NO": 999, "REV_AT_EPOCH": 458, "BSTAR": -0.0012401, "MEAN_MOTION_DOT": -0.0007247, "MEAN_MOTION_DDOT": 0}, "tle": {"line1": "1 66541U 25265AB  25344.16668980 -.00072470  00000+0 -12401-2 0  9995", "line2": "2 66541  42.9998  68.9472 0001680 271.5496 293.0245 15.50595736  4588"}}, "geometry": {"type": "Point", "coordinates": [-123.22565300447795, 9.48528708841875]}}, {"type": "Feature", "properties": {"norad_id": 66542, "name": "STARLINK-35833", "group": "last-30-days", "lat": 8.203400281760427, "lon": -121.79969028164903, "alt_km": 414.10962114166614, "timestamp": "2025-12-10T11:33:52.172100+00:00", "meta": {"OBJECT_NAME": "STARLINK-35833", "OBJECT_ID": "2025-265AC", "EPOCH": "2025-12-10T04:00:01.998720", "MEAN_MOTION": 15.50538131, "ECCENTRICITY": 0.0001771, "INCLINATION": 43, "RA_OF_ASC_NODE": 68.9439, "ARG_OF_PERICENTER": 274.2967, "MEAN_ANOMALY": 292.2114, "EPHEMERIS_TYPE": 0, "CLASSIFICATION_TYPE": "U", "NORAD_CAT_ID": 66542, "ELEMENT_SET_NO": 999, "REV_AT_EPOCH": 458, "BSTAR": 0.0006024, "MEAN_MOTION_DOT": 0.00035106, "MEAN_MOTION_DDOT": 0}, "tle": {"line1": "1 66542U 25265AC  25344.16668980  .00035106  00000+0  60240-3 0  9994", "line2": "2 66542  43.0000  68.9439 0001771 274.2967 292.2114 15.50538131  4584"}}, "geometry": {"type": "Point", "coordinates": [-121.79969028164903, 8.203400281760427]}}, {"type": "Feature", "properties": {"norad_id": 66543, "name": "STARLINK-35315", "group": "last-30-days", "lat": 6.904522512607783, "lon": -120.37280100919183, "alt_km": 414.18736838518544, "timestamp": "2025-12-10T11:33:52.172110+00:00", "meta": {"OBJECT_NAME": "STARLINK-35315", "OBJECT_ID": "2025-265AD", "EPOCH": "2025-12-10T04:00:01.998720", "MEAN_MOTION": 15.5059006, "ECCENTRICITY": 0.0001708, "INCLINATION": 42.9999, "RA_OF_ASC_NODE": 68.9378, "ARG_OF_PERICENTER": 269.6308, "MEAN_ANOMALY": 298.7771, "EPHEMERIS_TYPE": 0, "CLASSIFICATION_TYPE": "U", "NORAD_CAT_ID": 66543, "ELEMENT_SET_NO": 999, "REV_AT_EPOCH": 447, "BSTAR": -0.0010521, "MEAN_MOTION_DOT": -0.00061606, "MEAN_MOTION_DDOT": 0}, "tle": {"line1": "1 66543U 25265AD  25344.16668980 -.00061606  00000+0 -10521-2 0  9997", "line2": "2 66543  42.9999  68.9378 0001708 269.6308 298.7771 15.50590060  4476"}}, "geometry": {"type": "Point", "coordinates": [-120.37280100919183, 6.904522512607783]}}, {"type": "Feature", "properties": {"norad_id": 66544, "name": "STARLINK-35728", "group": "last-30-days", "lat": 5.606165364486391, "lon": -118.95718144114869, "alt_km": 414.2958472939936, "timestamp": "2025-12-10T11:33:52.172120+00:00", "meta": {"OBJECT_NAME": "STARLINK-35728", "OBJECT_ID": "2025-265AE", "EPOCH": "2025-12-10T04:00:01.998720", "MEAN_MOTION": 15.50590795, "ECCENTRICITY": 0.0001666, "INCLINATION": 42.9999, "RA_OF_ASC_NODE": 68.9334, "ARG_OF_PERICENTER": 267.9968, "MEAN_ANOMALY": 302.3275, "EPHEMERIS_TYPE": 0, "CLASSIFICATION_TYPE": "U", "NORAD_CAT_ID": 66544, "ELEMENT_SET_NO": 999, "REV_AT_EPOCH": 458, "BSTAR": -0.0010667, "MEAN_MOTION_DOT": -0.00062453, "MEAN_MOTION_DDOT": 0}, "tle": {"line1": "1 66544U 25265AE  25344.16668980 -.00062453  00000+0 -10667-2 0  9990", "line2": "2 66544  42.9999  68.9334 0001666 267.9968 302.3275 15.50590795  4583"}}, "geometry": {"type": "Point", "coordinates": [-118.95718144114869, 5.606165364486391]}}, {"type": "Feature", "properties": {"norad_id": 66545, "name": "SHIJIAN-30A", "group": "last-30-days", "lat": 0.5987087730592983, "lon": 162.96800625038207, "alt_km": 528.5459247445324, "timestamp": "2025-12-10T11:33:52.172132+00:00", "meta": {"OBJECT_NAME": "SHIJIAN-30A", "OBJECT_ID": "2025-266A", "EPOCH": "2025-12-10T04:26:48.852096", "MEAN_MOTION": 15.15565559, "ECCENTRICITY": 0.0012765, "INCLINATION": 51.799, "RA_OF_ASC_NODE": 344.8294, "ARG_OF_PERICENTER": 347.1434, "MEAN_ANOMALY": 12.9215, "EPHEMERIS_TYPE": 0, "CLASSIFICATION_TYPE": "U", "NORAD_CAT_ID": 66545, "ELEMENT_SET_NO": 999, "REV_AT_EPOCH": 319, "BSTAR": 0.00077339, "MEAN_MOTION_DOT": 0.00014605, "MEAN_MOTION_DDOT": 0}, "tle": {"line1": "1 66545U 25266A   25344.18528764  .00014605  00000+0  77339-3 0  9993", "line2": "2 66545  51.7990 344.8294 0012765 347.1434  12.9215 15.15565559  3190"}}, "geometry": {"type": "Point", "coordinates": [162.96800625038207, 0.5987087730592983]}}]}